{
  "type": "FeatureCollection",
  "features": [
    {
      "type": "Feature",
      "properties": {
        "norad_id": 65729,
        "name": "DRAGONFLY",
        "group": "stations",
        "lat": -17.81350814490925,
        "lon": -8.19129641893402,
        "alt_km": 358.22434423863433,
        "timestamp": "2025-12-08T13:49:30.594059+00:00",
        "meta_object_name": "DRAGONFLY",
        "meta_object_id": "1998-067XH",
        "meta_epoch": "2025-12-08T05:19:35.770656",
        "meta_mean_motion": 15.70056695,
        "meta_eccentricity": 0.00064071,
        "meta_inclination": 51.6251,
        "meta_ra_of_asc_node": 158.866,
        "meta_arg_of_pericenter": 248.889,
        "meta_mean_anomaly": 111.1422,
        "meta_ephemeris_type": 0,
        "meta_classification_type": "U",
        "meta_norad_cat_id": 65729,
        "meta_element_set_no": 999,
        "meta_rev_at_epoch": 1245,
        "meta_bstar": 0.0012867364,
        "meta_mean_motion_dot": 0.00161054,
        "meta_mean_motion_ddot": 0,
        "tle_line1": "1 65729U 98067XH  25342.22194179  .00161054  00000+0  12867-2 0  9992",
        "tle_line2": "2 65729  51.6251 158.8660 0006407 248.8890 111.1422 15.70056695 12459"
      },
      "geometry": {
        "type": "Point",
        "coordinates": [
          -8.19129641893402,
          -17.81350814490925
        ]
      }
    },
    {
      "type": "Feature",
      "properties": {
        "norad_id": 65731,
        "name": "1998-067XK",
        "group": "stations",
        "lat": -34.166007068909884,
        "lon": 125.80445316069894,
        "alt_km": 378.38513417028025,
        "timestamp": "2025-12-08T13:49:30.594069+00:00",
        "meta_object_name": "1998-067XK",
        "meta_object_id": "1998-067XK",
        "meta_epoch": "2025-12-08T04:49:23.217024",
        "meta_mean_motion": 15.64619204,
        "meta_eccentricity": 0.00054425,
        "meta_inclination": 51.6277,
        "meta_ra_of_asc_node": 160.2401,
        "meta_arg_of_pericenter": 217.3331,
        "meta_mean_anomaly": 142.7286,
        "meta_ephemeris_type": 0,
        "meta_classification_type": "U",
        "meta_norad_cat_id": 65731,
        "meta_element_set_no": 999,
        "meta_rev_at_epoch": 1243,
        "meta_bstar": 0.00098566589,
        "meta_mean_motion_dot": 0.00097949,
        "meta_mean_motion_ddot": 0,
        "tle_line1": "1 65731U 98067XK  25342.20096316  .00097949  00000+0  98567-3 0  9990",
        "tle_line2": "2 65731  51.6277 160.2401 0005442 217.3331 142.7286 15.64619204 12439"
      },
      "geometry": {
        "type": "Point",
        "coordinates": [
          125.80445316069894,
          -34.166007068909884
        ]
      }
    },
    {
      "type": "Feature",
      "properties": {
        "norad_id": 65732,
        "name": "RSP-03",
        "group": "stations",
        "lat": -45.69523808780831,
        "lon": 32.00560277558234,
        "alt_km": 367.3187081215174,
        "timestamp": "2025-12-08T13:49:30.594080+00:00",
        "meta_object_name": "RSP-03",
        "meta_object_id": "1998-067XL",
        "meta_epoch": "2025-12-08T05:07:42.531744",
        "meta_mean_motion": 15.67171171,
        "meta_eccentricity": 0.00061913,
        "meta_inclination": 51.6259,
        "meta_ra_of_asc_node": 159.5673,
        "meta_arg_of_pericenter": 221.7076,
        "meta_mean_anomaly": 138.3449,
        "meta_ephemeris_type": 0,
        "meta_classification_type": "U",
        "meta_norad_cat_id": 65732,
        "meta_element_set_no": 999,
        "meta_rev_at_epoch": 1245,
        "meta_bstar": 0.0011528972,
        "meta_mean_motion_dot": 0.0012755,
        "meta_mean_motion_ddot": 0,
        "tle_line1": "1 65732U 98067XL  25342.21368671  .00127550  00000+0  11529-2 0  9992",
        "tle_line2": "2 65732  51.6259 159.5673 0006191 221.7076 138.3449 15.67171171 12452"
      },
      "geometry": {
        "type": "Point",
        "coordinates": [
          32.00560277558234,
          -45.69523808780831
        ]
      }
    },
    {
      "type": "Feature",
      "properties": {
        "norad_id": 65733,
        "name": "GHS-01",
        "group": "stations",
        "lat": 49.665894587208385,
        "lon": -134.4815486786515,
        "alt_km": 349.0763025301185,
        "timestamp": "2025-12-08T13:49:30.594091+00:00",
        "meta_object_name": "GHS-01",
        "meta_object_id": "1998-067XM",
        "meta_epoch": "2025-12-08T02:49:29.282592",
        "meta_mean_motion": 15.7246557,
        "meta_eccentricity": 0.0006917,
        "meta_inclination": 51.6275,
        "meta_ra_of_asc_node": 158.9257,
        "meta_arg_of_pericenter": 247.5151,
        "meta_mean_anomaly": 112.5115,
        "meta_ephemeris_type": 0,
        "meta_classification_type": "U",
        "meta_norad_cat_id": 65733,
        "meta_element_set_no": 999,
        "meta_rev_at_epoch": 1245,
        "meta_bstar": 0.0014759083,
        "meta_mean_motion_dot": 0.00205689,
        "meta_mean_motion_ddot": 0,
        "tle_line1": "1 65733U 98067XM  25342.11770003  .00205689  00000+0  14759-2 0  9996",
        "tle_line2": "2 65733  51.6275 158.9257 0006917 247.5151 112.5115 15.72465570 12457"
      },
      "geometry": {
        "type": "Point",
        "coordinates": [
          -134.4815486786515,
          49.665894587208385
        ]
      }
    },
    {
      "type": "Feature",
      "properties": {
        "norad_id": 65941,
        "name": "YOTSUBA-KULOVER",
        "group": "stations",
        "lat": 9.852004025165368,
        "lon": -27.01829866604525,
        "alt_km": 389.75698266303607,
        "timestamp": "2025-12-08T13:49:30.594102+00:00",
        "meta_object_name": "YOTSUBA-KULOVER",
        "meta_object_id": "1998-067XN",
        "meta_epoch": "2025-12-07T12:29:23.884512",
        "meta_mean_motion": 15.58552395,
        "meta_eccentricity": 0.00017957,
        "meta_inclination": 51.628,
        "meta_ra_of_asc_node": 166.1928,
        "meta_arg_of_pericenter": 200.639,
        "meta_mean_anomaly": 159.453,
        "meta_ephemeris_type": 0,
        "meta_classification_type": "U",
        "meta_norad_cat_id": 65941,
        "meta_element_set_no": 999,
        "meta_rev_at_epoch": 904,
        "meta_bstar": 0.0010602119,
        "meta_mean_motion_dot": 0.00083069,
        "meta_mean_motion_ddot": 0,
        "tle_line1": "1 65941U 98067XN  25341.52041533  .00083069  00000+0  10602-2 0  9999",
        "tle_line2": "2 65941  51.6280 166.1928 0001795 200.6390 159.4530 15.58552395  9042"
      },
      "geometry": {
        "type": "Point",
        "coordinates": [
          -27.01829866604525,
          9.852004025165368
        ]
      }
    },
    {
      "type": "Feature",
      "properties": {
        "norad_id": 65942,
        "name": "BOTAN",
        "group": "stations",
        "lat": 51.54141368935887,
        "lon": -113.63971535368808,
        "alt_km": 376.5394205018856,
        "timestamp": "2025-12-08T13:49:30.594113+00:00",
        "meta_object_name": "BOTAN",
        "meta_object_id": "1998-067XP",
        "meta_epoch": "2025-12-07T19:01:20.591616",
        "meta_mean_motion": 15.61568201,
        "meta_eccentricity": 0.00038466,
        "meta_inclination": 51.6278,
        "meta_ra_of_asc_node": 164.2597,
        "meta_arg_of_pericenter": 199.4813,
        "meta_mean_anomaly": 160.6034,
        "meta_ephemeris_type": 0,
        "meta_classification_type": "U",
        "meta_norad_cat_id": 65942,
        "meta_element_set_no": 999,
        "meta_rev_at_epoch": 909,
        "meta_bstar": 0.0014856756,
        "meta_mean_motion_dot": 0.00131716,
        "meta_mean_motion_ddot": 0,
        "tle_line1": "1 65942U 98067XP  25341.79259944  .00131716  00000+0  14857-2 0  9995",
        "tle_line2": "2 65942  51.6278 164.2597 0003846 199.4813 160.6034 15.61568201  9090"
      },
      "geometry": {
        "type": "Point",
        "coordinates": [
          -113.63971535368808,
          51.54141368935887
        ]
      }
    },
    {
      "type": "Feature",
      "properties": {
        "norad_id": 65943,
        "name": "E-KAGAKU-1",
        "group": "stations",
        "lat": 9.71395607811571,
        "lon": -26.90111586814575,
        "alt_km": 388.8317395966742,
        "timestamp": "2025-12-08T13:49:30.594123+00:00",
        "meta_object_name": "E-KAGAKU-1",
        "meta_object_id": "1998-067XQ",
        "meta_epoch": "2025-12-07T18:38:39.521184",
        "meta_mean_motion": 15.58562644,
        "meta_eccentricity": 0.00029586,
        "meta_inclination": 51.6295,
        "meta_ra_of_asc_node": 164.9078,
        "meta_arg_of_pericenter": 173.7443,
        "meta_mean_anomaly": 186.3587,
        "meta_ephemeris_type": 0,
        "meta_classification_type": "U",
        "meta_norad_cat_id": 65943,
        "meta_element_set_no": 999,
        "meta_rev_at_epoch": 908,
        "meta_bstar": 0.0011280115,
        "meta_mean_motion_dot": 0.00088516,
        "meta_mean_motion_ddot": 0,
        "tle_line1": "1 65943U 98067XQ  25341.77684631  .00088516  00000+0  11280-2 0  9995",
        "tle_line2": "2 65943  51.6295 164.9078 0002958 173.7443 186.3587 15.58562644  9086"
      },
      "geometry": {
        "type": "Point",
        "coordinates": [
          -26.90111586814575,
          9.71395607811571
        ]
      }
    }
  ]
}